{
  "type": "FeatureCollection",
  "features": [{
    "type": "Feature",
    "properties": { "name": "澳門特別行政區", "districts": ["半島", "氹仔", "路氹", "路環"] },
    "geometry": {
      "type": "Polygon",
      "coordinates": [[
        [113.5280, 22.2170],
        [113.5650, 22.2170],
        [113.5980, 22.2000],
        [113.5980, 22.1600],
        [113.5850, 22.1200],
        [113.5650, 22.1060],
        [113.5400, 22.1060],
        [113.5280, 22.1300],
        [113.5280, 22.1700],
        [113.5280, 22.2170]
      ]]
    }
  }]
}
